NORAD_CAT_ID,OBJECT_NAME,OBJECT_TYPE,EPOCH,MEAN_MOTION,ECCENTRICITY,INCLINATION,RA_OF_ASC_NODE,ARG_OF_PERICENTER,MEAN_ANOMALY,BSTAR,MEAN_MOTION_DOT,MEAN_MOTION_DDOT,TLE_LINE0,TLE_LINE1,TLE_LINE2,SEMIMAJOR_AXIS,PERIOD,APOGEE,PERIGEE,DECAYED
53842.0,STARLINK-4754,PAYLOAD,2023-02-16 21:25:39,15.08852113,0.0001181,53.2171,267.5836,89.3139,270.7988,0.0012578,0.00019793,0.0,0 STARLINK-4754,1 53842U 22114AA  23047.89281528  .00019793  00000-0  12578-2 0  9995,2 53842  53.2171 267.5836 0001181  89.3139 270.7988 15.08852113 24375,6917.843,95.437,540.525,538.891,0.0
53842.0,STARLINK-4754,PAYLOAD,2023-02-16 23:01:02,15.08854369,0.0001234,53.2174,267.2865,89.3556,270.7577,0.0013497,0.00021266,0.0,0 STARLINK-4754,1 53842U 22114AA  23047.95905479  .00021266  00000-0  13497-2 0  9999,2 53842  53.2174 267.2865 0001234  89.3556 270.7577 15.08854369 23849,6917.836,95.437,540.555,538.848,0.0
53842.0,STARLINK-4754,PAYLOAD,2023-02-17 06:57:58,15.08847517,0.0001816,53.2167,265.7975,75.7551,284.3642,0.00090082,0.00014081,0.0,0 STARLINK-4754,1 53842U 22114AA  23048.29025758  .00014081  00000-0  90082-3 0  9993,2 53842  53.2167 265.7975 0001816  75.7551 284.3642 15.08847517 23892,6917.857,95.437,540.979,538.466,0.0
53842.0,STARLINK-4754,PAYLOAD,2023-02-17 18:05:39,15.08842299,0.0001076,53.2165,263.7189,104.5607,255.5504,0.00062972,9.749e-05,0.0,0 STARLINK-4754,1 53842U 22114AA  23048.75393505  .00009749  00000-0  62972-3 0  9994,2 53842  53.2165 263.7189 0001076 104.5607 255.5504 15.08842299 23963,6917.873,95.437,540.483,538.994,0.0
53842.0,STARLINK-4754,PAYLOAD,2023-02-17 21:16:26,15.08846534,0.0001153,53.2162,263.1237,103.2685,256.8435,0.00021866,3.194e-05,0.0,0 STARLINK-4754,1 53842U 22114AA  23048.88641358  .00003194  00000-0  21866-3 0  9995,2 53842  53.2162 263.1237 0001153 103.2685 256.8435 15.08846534 24522,6917.86,95.437,540.523,538.928,0.0
53842.0,STARLINK-4754,PAYLOAD,2023-02-18 06:48:45,15.08840496,0.0001034,53.2164,261.3385,99.0495,261.0614,0.00025075,3.705e-05,0.0,0 STARLINK-4754,1 53842U 22114AA  23049.28385507  .00003705  00000-0  25075-3 0  9995,2 53842  53.2164 261.3385 0001034  99.0495 261.0614 15.08840496 24042,6917.879,95.438,540.459,539.029,0.0
53842.0,STARLINK-4754,PAYLOAD,2023-02-18 21:07:13,15.0882918,0.0001138,53.2166,258.6627,99.7765,260.3356,-7.0766e-05,-1.414e-05,0.0,0 STARLINK-4754,1 53842U 22114AA  23049.88002038 -.00001414  00000-0 -70766-4 0  9991,2 53842  53.2166 258.6627 0001138  99.7765 260.3356 15.08829180 24136,6917.913,95.438,540.566,538.991,0.0
53842.0,STARLINK-4754,PAYLOAD,2023-02-19 06:39:32,15.08836237,0.0001135,53.2174,256.878,96.8204,263.2917,3.7705e-05,3.12e-06,0.0,0 STARLINK-4754,1 53842U 22114AA  23050.27746089  .00000312  00000-0  37705-4 0  9997,2 53842  53.2174 256.8780 0001135  96.8204 263.2917 15.08836237 24730,6917.892,95.438,540.542,538.972,0.0
53842.0,STARLINK-4754,PAYLOAD,2023-02-19 20:57:59,15.08872322,0.0001049,53.217,254.2017,79.0162,281.0949,0.00072681,0.00011308,0.0,0 STARLINK-4754,1 53842U 22114AA  23050.87360613  .00011308  00000-0  72681-3 0  9996,2 53842  53.2170 254.2017 0001049  79.0162 281.0949 15.08872322 24289,6917.782,95.436,540.372,538.921,0.0
53842.0,STARLINK-4754,PAYLOAD,2023-02-20 06:30:18,15.08855765,0.0001041,53.2174,252.4173,90.4296,269.6815,0.00028153,4.197e-05,0.0,0 STARLINK-4754,1 53842U 22114AA  23051.27104761  .00004197  00000-0  28153-3 0  9994,2 53842  53.2174 252.4173 0001041  90.4296 269.6815 15.08855765 24346,6917.832,95.437,540.417,538.977,0.0
53842.0,STARLINK-4754,PAYLOAD,2023-02-20 14:27:15,15.08830764,0.0001271,53.2172,250.9301,93.917,266.1968,-7.5065e-07,-3e-06,0.0,0 STARLINK-4754,1 53842U 22114AA  23051.60226108 -.00000300  00000-0 -75065-6 0  9992,2 53842  53.2172 250.9301 0001271  93.9170 266.1968 15.08830764 24392,6917.909,95.438,540.653,538.894,0.0
53842.0,STARLINK-4754,PAYLOAD,2023-02-21 06:21:06,15.08836377,0.0001162,53.2162,247.9557,92.2381,267.8744,-3.6191e-05,-8.64e-06,0.0,0 STARLINK-4754,1 53842U 22114AA  23052.26465847 -.00000864  00000-0 -36191-4 0  9990,2 53842  53.2162 247.9557 0001162  92.2381 267.8744 15.08836377 24492,6917.891,95.438,540.56,538.953,0.0
53842.0,STARLINK-4754,PAYLOAD,2023-02-21 19:04:11,15.08839261,0.0001256,53.2155,245.5768,93.2594,266.8542,0.00053475,8.233e-05,0.0,0 STARLINK-4754,1 53842U 22114AA  23052.79458071  .00008233  00000-0  53475-3 0  9998,2 53842  53.2155 245.5768 0001256  93.2594 266.8542 15.08839261 25113,6917.883,95.438,540.617,538.879,0.0
53842.0,STARLINK-4754,PAYLOAD,2023-02-22 01:25:44,15.08847994,0.000128,53.2155,244.3872,91.1561,268.9578,0.00080667,0.00012576,0.0,0 STARLINK-4754,1 53842U 22114AA  23053.05954034  .00012576  00000-0  80667-3 0  9996,2 53842  53.2155 244.3872 0001280  91.1561 268.9578 15.08847994 24612,6917.856,95.437,540.606,538.835,0.0
53842.0,STARLINK-4754,PAYLOAD,2023-02-22 18:54:59,15.08839482,0.0001346,53.2164,241.1156,91.4159,268.6987,0.00025929,3.841e-05,0.0,0 STARLINK-4754,1 53842U 22114AA  23053.78818372  .00003841  00000-0  25929-3 0  9995,2 53842  53.2164 241.1156 0001346  91.4159 268.6987 15.08839482 24727,6917.882,95.438,540.678,538.816,0.0
53842.0,STARLINK-4754,PAYLOAD,2023-02-22 22:05:45,15.08842209,0.0001456,53.2168,240.5215,89.2729,270.8429,0.00028654,4.276e-05,0.0,0 STARLINK-4754,1 53842U 22114AA  23053.92066312  .00004276  00000-0  28654-3 0  9991,2 53842  53.2168 240.5215 0001456  89.2729 270.8429 15.08842209 25289,6917.874,95.437,540.746,538.731,0.0
53842.0,STARLINK-4754,PAYLOAD,2023-02-23 18:45:45,15.08845756,0.000136,53.2171,236.6551,89.3293,270.7855,0.00023494,3.454e-05,0.0,0 STARLINK-4754,1 53842U 22114AA  23054.78178159  .00003454  00000-0  23494-3 0  9993,2 53842  53.2171 236.6551 0001360  89.3293 270.7855 15.08845756 25410,6917.863,95.437,540.669,538.787,0.0
53842.0,STARLINK-4754,PAYLOAD,2023-02-23 23:31:55,15.08849313,0.0001317,53.2172,235.7631,83.2785,276.8357,0.00031876,4.79e-05,0.0,0 STARLINK-4754,1 53842U 22114AA  23054.98050037  .00004790  00000-0  31876-3 0  9996,2 53842  53.2172 235.7631 0001317  83.2785 276.8357 15.08849313 24901,6917.852,95.437,540.628,538.806,0.0
53842.0,STARLINK-4754,PAYLOAD,2023-02-24 12:15:00,15.08841904,0.0001883,53.2164,233.3837,81.8186,278.3019,0.00011527,1.547e-05,0.0,0 STARLINK-4754,1 53842U 22114AA  23055.51042434  .00001547  00000-0  11527-3 0  9996,2 53842  53.2164 233.3837 0001883  81.8186 278.3019 15.08841904 25520,6917.875,95.437,541.042,538.437,0.0
53842.0,STARLINK-4754,PAYLOAD,2023-02-24 15:25:46,15.08840694,0.0001364,53.217,232.7893,96.9048,263.2099,7.7461e-05,9.45e-06,0.0,0 STARLINK-4754,1 53842U 22114AA  23055.64290334  .00000945  00000-0  77461-4 0  9995,2 53842  53.2170 232.7893 0001364  96.9048 263.2099 15.08840694 25009,6917.878,95.438,540.687,538.8,0.0
53842.0,STARLINK-4754,PAYLOAD,2023-02-24 20:11:56,15.08843777,0.0001216,53.217,231.8981,88.1254,271.9877,0.00013272,1.825e-05,0.0,0 STARLINK-4754,1 53842U 22114AA  23055.84162383  .00001825  00000-0  13272-3 0  9996,2 53842  53.2170 231.8981 0001216  88.1254 271.9877 15.08843777 25572,6917.869,95.437,540.575,538.893,0.0
53842.0,STARLINK-4754,PAYLOAD,2023-02-25 13:41:10,15.08837639,0.0001146,53.217,228.6265,90.019,270.0934,5.1671e-05,5.35e-06,0.0,0 STARLINK-4754,1 53842U 22114AA  23056.57026549  .00000535  00000-0  51671-4 0  9993,2 53842  53.2170 228.6265 0001146  90.0190 270.0934 15.08837639 25680,6917.888,95.438,540.545,538.96,0.0
53842.0,STARLINK-4754,PAYLOAD,2023-02-25 18:27:20,15.08841761,0.0001195,53.2173,227.7357,91.7881,268.3248,0.00019259,2.779e-05,0.0,0 STARLINK-4754,1 53842U 22114AA  23056.76898512  .00002779  00000-0  19259-3 0  9998,2 53842  53.2173 227.7357 0001195  91.7881 268.3248 15.08841761 25177,6917.875,95.437,540.567,538.913,0.0
53842.0,STARLINK-4754,PAYLOAD,2023-02-25 20:02:43,15.08844696,0.0001177,53.2173,227.4383,91.4278,268.6849,0.00028509,4.253e-05,0.0,0 STARLINK-4754,1 53842U 22114AA  23056.83522483  .00004253  00000-0  28509-3 0  9994,2 53842  53.2173 227.4383 0001177  91.4278 268.6849 15.08844696 25721,6917.866,95.437,540.545,538.917,0.0
53842.0,STARLINK-4754,PAYLOAD,2023-02-26 13:31:57,15.08848925,0.0001126,53.2171,224.1667,93.1357,266.9764,0.00039119,5.945e-05,0.0,0 STARLINK-4754,1 53842U 22114AA  23057.56386392  .00005945  00000-0  39119-3 0  9990,2 53842  53.2171 224.1667 0001126  93.1357 266.9764 15.08848925 25837,6917.853,95.437,540.497,538.939,0.0
53842.0,STARLINK-4754,PAYLOAD,2023-02-26 19:53:30,15.08857423,0.0001202,53.2172,222.9779,94.3429,265.77,0.00057625,8.899e-05,0.0,0 STARLINK-4754,1 53842U 22114AA  23057.82882074  .00008899  00000-0  57625-3 0  9990,2 53842  53.2172 222.9779 0001202  94.3429 265.7700 15.08857423 25331,6917.827,95.436,540.524,538.861,0.0
53842.0,STARLINK-4754,PAYLOAD,2023-02-26 23:04:16,15.0886221,0.0001167,53.2169,222.3828,87.1373,272.9753,0.00067275,0.00010442,0.0,0 STARLINK-4754,1 53842U 22114AA  23057.96129881  .00010442  00000-0  67275-3 0  9994,2 53842  53.2169 222.3828 0001167  87.1373 272.9753 15.08862210 25893,6917.813,95.436,540.485,538.87,0.0
53842.0,STARLINK-4754,PAYLOAD,2023-02-27 18:08:53,15.08872245,0.0001327,53.2161,218.8124,66.4505,293.6626,0.0014761,0.00023303,0.0,0 STARLINK-4754,1 53842U 22114AA  23058.75617902  .00023303  00000-0  14761-2 0  9999,2 53842  53.2161 218.8124 0001327  66.4505 293.6626 15.08872245 25471,6917.782,95.436,540.565,538.729,0.0
53842.0,STARLINK-4754,PAYLOAD,2023-02-28 03:41:13,15.0884589,0.0001531,53.2165,217.0304,79.5546,280.5618,0.00046931,7.19e-05,0.0,0 STARLINK-4754,1 53842U 22114AA  23059.15362285  .00007190  00000-0  46931-3 0  9996,2 53842  53.2165 217.0304 0001531  79.5546 280.5618 15.08845890 25532,6917.862,95.437,540.787,538.668,0.0
53842.0,STARLINK-4754,PAYLOAD,2023-02-28 10:02:45,15.08841762,0.000182,53.2165,215.842,77.1618,282.9577,0.00021261,3.097e-05,0.0,0 STARLINK-4754,1 53842U 22114AA  23059.41858571  .00003097  00000-0  21261-3 0  9994,2 53842  53.2165 215.8420 0001820  77.1618 282.9577 15.08841762 26111,6917.875,95.437,540.999,538.481,0.0
